H1 CPF  1  HTS 2022  3 14 12  5731 larets           NONE
H2  0304206 5557    27944 2022 03 14  0  0  0 2022 03 19  0  0  0   180 1 1  0 0 0
H5  0.0560 
H9 
10 0 59655  82440.00000  0    3468135.410    2581174.298    5585862.728
10 0 59655  82620.00000  0    2783649.377    1629225.109    6281616.608
10 0 59655  82800.00000  0    1972727.318     637830.511    6747948.119
10 0 59655  82980.00000  0    1064243.425    -354123.762    6967809.217
10 0 59655  83160.00000  0      91613.850   -1308538.083    6933080.836
10 0 59655  83340.00000  0    -908426.192   -2189556.404    6644869.392
10 0 59655  83520.00000  0   -1897199.745   -2964913.412    6113487.348
10 0 59655  83700.00000  0   -2835570.553   -3607125.168    5358123.635
10 0 59655  83880.00000  0   -3685497.658   -4094493.528    4406212.076
10 0 59655  84060.00000  0   -4411607.643   -4411881.364    3292481.813
10 0 59655  84240.00000  0   -4982702.295   -4551219.245    2057715.448
10 0 59655  84420.00000  0   -5373138.092   -4511720.900     747254.117
10 0 59655  84600.00000  0   -5564004.747   -4299785.530    -590704.002
10 0 59655  84780.00000  0   -5544034.154   -3928586.830   -1906938.082
10 0 59655  84960.00000  0   -5310183.411   -3417365.666   -3153088.979
10 0 59655  85140.00000  0   -4867857.938   -2790466.847   -4283493.688
10 0 59655  85320.00000  0   -4230775.061   -2076181.194   -5256886.145
10 0 59655  85500.00000  0   -3420481.967   -1305456.737   -6037897.159
10 0 59655  85680.00000  0   -2465560.903    -510545.457   -6598299.276
10 0 59655  85860.00000  0   -1400566.064     276348.742   -6917962.930
10 0 59655  86040.00000  0    -264743.096    1024360.897   -6985507.392
10 0 59655  86220.00000  0     899414.594    1705152.414   -6798651.053
10 0 59656      0.00000  0    2047733.935    2293961.684   -6364268.375
10 0 59656    180.00000  0    3136016.681    2770491.428   -5698147.831
10 0 59656    360.00000  0    4121722.223    3119603.026   -4824450.168
10 0 59656    540.00000  0    4965627.003    3331798.800   -3774883.727
10 0 59656    720.00000  0    5633404.020    3403474.261   -2587601.485
10 0 59656    900.00000  0    6097049.051    3336927.344   -1305846.881
10 0 59656   1080.00000  0    6336089.010    3140119.853      23612.687
10 0 59656   1260.00000  0    6338505.388    2826195.071    1352206.912
10 0 59656   1440.00000  0    6101321.126    2412774.590    2631365.628
10 0 59656   1620.00000  0    5630819.117    1921073.855    3814327.670
10 0 59656   1800.00000  0    4942376.688    1374876.533    4857876.624
10 0 59656   1980.00000  0    4059928.699     799424.026    5723922.558
10 0 59656   2160.00000  0    3015094.892     220276.506    6380876.861
10 0 59656   2340.00000  0    1846008.647    -337799.959    6804770.309
10 0 59656   2520.00000  0     595910.756    -851871.554    6980092.265
10 0 59656   2700.00000  0    -688451.397   -1301767.582    6900338.345
10 0 59656   2880.00000  0   -1958563.039   -1670869.130    6568246.971
10 0 59656   3060.00000  0   -3165960.109   -1946726.989    5995725.006
10 0 59656   3240.00000  0   -4264077.095   -2121490.033    5203472.366
10 0 59656   3420.00000  0   -5210075.553   -2192135.625    4220290.789
10 0 59656   3600.00000  0   -5966568.512   -2160483.650    3082077.486
10 0 59656   3780.00000  0   -6503164.555   -2032989.535    1830537.746
10 0 59656   3960.00000  0   -6797765.275   -1820328.310     511650.825
10 0 59656   4140.00000  0   -6837534.724   -1536781.576    -826064.704
10 0 59656   4320.00000  0   -6619479.536   -1199456.457   -2133401.858
10 0 59656   4500.00000  0   -6150605.970    -827382.313   -3362344.272
10 0 59656   4680.00000  0   -5447650.776    -440536.345   -4467883.240
10 0 59656   4860.00000  0   -4536405.987     -58846.787   -5409691.158
10 0 59656   5040.00000  0   -3450681.915     298770.874   -6153580.250
10 0 59656   5220.00000  0   -2230969.804     615295.541   -6672695.251
10 0 59656   5400.00000  0    -922879.165     876361.377   -6948413.516
10 0 59656   5580.00000  0     424585.725    1070871.234   -6970944.535
10 0 59656   5760.00000  0    1760845.403    1191443.871   -6739628.523
10 0 59656   5940.00000  0    3035617.053    1234683.431   -6262943.006
10 0 59656   6120.00000  0    4200783.143    1201264.618   -5558203.321
10 0 59656   6300.00000  0    5212192.929    1095830.064   -4650970.167
10 0 59656   6480.00000  0    6031347.083     926705.964   -3574174.644
10 0 59656   6660.00000  0    6626898.707     705444.746   -2366969.382
10 0 59656   6840.00000  0    6975906.447     446212.405   -1073336.524
10 0 59656   7020.00000  0    7064774.869     165046.406     259511.269
10 0 59656   7200.00000  0    6889824.446    -120979.558    1582871.419
10 0 59656   7380.00000  0    6457463.018    -394643.438    2848362.144
10 0 59656   7560.00000  0    5783940.188    -639469.228    4009726.475
10 0 59656   7740.00000  0    4894699.591    -840579.643    5024542.312
10 0 59656   7920.00000  0    3823371.104    -985465.227    5855772.857
10 0 59656   8100.00000  0    2610450.771   -1064630.551    6473097.607
10 0 59656   8280.00000  0    1301738.841   -1072091.072    6853984.757
10 0 59656   8460.00000  0     -53402.656   -1005702.322    6984482.763
10 0 59656   8640.00000  0   -1403910.516    -867306.361    6859709.180
10 0 59656   8820.00000  0   -2698930.736    -662690.647    6484032.435
10 0 59656   9000.00000  0   -3889723.551    -401358.020    5870948.465
10 0 59656   9180.00000  0   -4931512.580     -96114.732    5042648.897
10 0 59656   9360.00000  0   -5785214.415     237510.374    4029271.750
10 0 59656   9540.00000  0   -6418972.468     581995.537    2867844.458
10 0 59656   9720.00000  0   -6809425.716     918675.914    1600948.988
10 0 59656   9900.00000  0   -6942649.797    1228673.725     275145.993
10 0 59656  10080.00000  0   -6814710.980    1493860.572   -1060785.240
10 0 59656  10260.00000  0   -6431791.386    1697799.755   -2357709.431
10 0 59656  10440.00000  0   -5809883.272    1826617.953   -3568009.128
10 0 59656  10620.00000  0   -4974065.984    1869759.244   -4647387.549
10 0 59656  10800.00000  0   -3957410.238    1820577.985   -5556507.145
10 0 59656  10980.00000  0   -2799585.628    1676747.076   -6262399.286
10 0 59656  11160.00000  0   -1545249.594    1440466.741   -6739607.514
10 0 59656  11340.00000  0    -242287.851    1118469.094   -6971037.072
10 0 59656  11520.00000  0    1060014.223     721822.507   -6948498.437
10 0 59656  11700.00000  0    2312811.307     265546.761   -6672957.845
10 0 59656  11880.00000  0    3469504.107    -231952.535   -6154485.947
10 0 59656  12060.00000  0    4487450.098    -749610.485   -5411904.838
10 0 59656  12240.00000  0    5329528.709   -1264568.514   -4472146.584
10 0 59656  12420.00000  0    5965517.309   -1753151.869   -3369330.047
10 0 59656  12600.00000  0    6373218.690   -2191920.872   -2143566.521
10 0 59656  12780.00000  0    6539287.145   -2558751.514    -839525.944
10 0 59656  12960.00000  0    6459708.242   -2833892.866     495189.386
10 0 59656  13140.00000  0    6139904.092   -3000947.903    1811802.163
10 0 59656  13320.00000  0    5594451.087   -3047725.442    3062177.459
10 0 59656  13500.00000  0    4846418.519   -2966917.320    4200615.156
10 0 59656  13680.00000  0    3926369.552   -2756563.903    5185535.442
10 0 59656  13860.00000  0    2871081.223   -2420292.297    5980995.138
10 0 59656  14040.00000  0    1722040.458   -1967313.348    6557977.760
10 0 59656  14220.00000  0     523793.809   -1412181.239    6895417.126
10 0 59656  14400.00000  0    -677784.125    -774327.389    6980934.002
10 0 59656  14580.00000  0   -1837238.368     -77383.463    6811271.539
10 0 59656  14760.00000  0   -2911241.683     651684.984    6392426.430
10 0 59656  14940.00000  0   -3860214.089    1383610.096    5739471.454
10 0 59656  15120.00000  0   -4649804.789    2087986.378    4876065.711
10 0 59656  15300.00000  0   -5252184.596    2734531.192    3833650.819
10 0 59656  15480.00000  0   -5647088.790    3294391.947    2650342.111
10 0 59656  15660.00000  0   -5822561.199    3741440.256    1369547.885
10 0 59656  15840.00000  0   -5775360.668    4053492.407      38355.733
10 0 59656  16020.00000  0   -5510994.835    4213384.359   -1294251.595
10 0 59656  16200.00000  0   -5043379.027    4209843.528   -2579267.447
10 0 59656  16380.00000  0   -4394130.384    4038105.835   -3769535.285
10 0 59656  16560.00000  0   -3591539.362    3700242.960   -4821525.083
10 0 59656  16740.00000  0   -2669287.444    3205192.774   -5696931.519
10 0 59656  16920.00000  0   -1664989.303    2568502.221   -6364037.885
10 0 59656  17100.00000  0    -618627.343    1811800.394   -6798811.640
10 0 59656  17280.00000  0     429050.095     962029.384   -6985699.894
10 0 59656  17460.00000  0    1438101.084      50470.902   -6918124.215
10 0 59656  17640.00000  0    2370890.455    -888401.129   -6598675.668
10 0 59656  17820.00000  0    3193468.825   -1818207.548   -6039005.271
10 0 59656  18000.00000  0    3876792.408   -2702048.859   -5259422.232
10 0 59656  18180.00000  0    4397752.940   -3503954.100   -4288204.626
10 0 59656  18360.00000  0    4739975.157   -4190341.435   -3160621.629
10 0 59656  18540.00000  0    4894353.013   -4731427.923   -1917696.943
10 0 59656  18720.00000  0    4859301.208   -5102531.236    -604739.634
10 0 59656  18900.00000  0    4640698.084   -5285197.487     730311.552
10 0 59656  19080.00000  0    4251516.995   -5268090.437    2038664.012
10 0 59656  19260.00000  0    3711162.337   -5047592.107    3272489.781
10 0 59656  19440.00000  0    3044544.400   -4628085.405    4386701.918
10 0 59656  19620.00000  0    2280944.051   -4021905.090    5340615.596
10 0 59656  19800.00000  0    1452726.900   -3248962.236    6099426.818
10 0 59656  19980.00000  0     593968.133   -2336063.878    6635457.802
10 0 59656  20160.00000  0    -260949.063   -1315962.322    6929129.207
10 0 59656  20340.00000  0   -1078701.313    -226174.870    6969644.059
99
